[{"OBJECT_NAME":"SHIYAN-28B 02","OBJECT_ID":"2025-177A","EPOCH":"2026-03-09T22:20:04.170912","MEAN_MOTION":14.29345292,"ECCENTRICITY":0.00031847,"INCLINATION":10.9983,"RA_OF_ASC_NODE":220.6467,"ARG_OF_PERICENTER":128.0226,"MEAN_ANOMALY":232.029,"EPHEMERIS_TYPE":0,"CLASSIFICATION_TYPE":"U","NORAD_CAT_ID":65226,"ELEMENT_SET_NO":999,"REV_AT_EPOCH":2931,"BSTAR":0.00012341019,"MEAN_MOTION_DOT":7.51e-6,"MEAN_MOTION_DDOT":0},{"OBJECT_NAME":"OPS 3367 B","OBJECT_ID":"1964-002C","EPOCH":"2026-03-09T17:40:48.608544","MEAN_MOTION":14.28555137,"ECCENTRICITY":0.00155796,"INCLINATION":98.9814,"RA_OF_ASC_NODE":350.5639,"ARG_OF_PERICENTER":233.0489,"MEAN_ANOMALY":126.9266,"EPHEMERIS_TYPE":0,"CLASSIFICATION_TYPE":"U","NORAD_CAT_ID":735,"ELEMENT_SET_NO":999,"REV_AT_EPOCH":23251,"BSTAR":7.776016e-5,"MEAN_MOTION_DOT":1.48e-6,"MEAN_MOTION_DDOT":0}]
